0 SL-6 R/B(2)
1 09921U 77027D   13280.46475360 -.00000054  00000-0  00000+0 0  9228
2 09921 072.1593 327.4374 5751110 317.0509 044.2778 01.98905571265128
0 SL-6 R/B(2)
1 09921U 77027D   13286.60887882 -.00000388  00000-0  00000+0 0  9237
2 09921 072.1650 327.1430 5749035 316.8319 123.8160 01.98905890265247
0 SL-6 R/B(2)
1 09921U 77027D   13293.36042515 -.00000720  00000-0  00000+0 0  9245
2 09921 072.1700 326.8194 5746611 316.5852 278.2549 01.98900388265379
